CCSDS_OMM_VERS = 2.0
CREATION_DATE  = 
ORIGINATOR     = 

OBJECT_NAME    = STARLINK-35972
OBJECT_ID      = 2025-271X
CENTER_NAME    = EARTH
REF_FRAME      = TEME
TIME_SYSTEM    = UTC
MEAN_ELEMENT_THEORY = SGP/SGP4

EPOCH          = 2025-12-30T12:41:27.716064
MEAN_MOTION    = 15.39607606
ECCENTRICITY   = .00014797
INCLINATION    = 53.1609
RA_OF_ASC_NODE = 102.8979
ARG_OF_PERICENTER = 72.7715
MEAN_ANOMALY   = 287.3452

EPHEMERIS_TYPE = 0
CLASSIFICATION_TYPE = U
NORAD_CAT_ID   = 66638
ELEMENT_SET_NO = 999
REV_AT_EPOCH   = 695
BSTAR          = .18157647E-2
MEAN_MOTION_DOT = .72897E-3
MEAN_MOTION_DDOT = 0

CCSDS_OMM_VERS = 2.0
CREATION_DATE  = 
ORIGINATOR     = 

OBJECT_NAME    = STARLINK-35908
OBJECT_ID      = 2025-271Y
CENTER_NAME    = EARTH
REF_FRAME      = TEME
TIME_SYSTEM    = UTC
MEAN_ELEMENT_THEORY = SGP/SGP4

EPOCH          = 2025-12-30T14:08:15.144288
MEAN_MOTION    = 15.39600505
ECCENTRICITY   = .00013831
INCLINATION    = 53.1603
RA_OF_ASC_NODE = 102.5620
ARG_OF_PERICENTER = 110.0641
MEAN_ANOMALY   = 250.0513

EPHEMERIS_TYPE = 0
CLASSIFICATION_TYPE = U
NORAD_CAT_ID   = 66639
ELEMENT_SET_NO = 999
REV_AT_EPOCH   = 696
BSTAR          = .20223899E-2
MEAN_MOTION_DOT = .81309E-3
MEAN_MOTION_DDOT = 0

CCSDS_OMM_VERS = 2.0
CREATION_DATE  = 
ORIGINATOR     = 

OBJECT_NAME    = STARLINK-35921
OBJECT_ID      = 2025-271Z
CENTER_NAME    = EARTH
REF_FRAME      = TEME
TIME_SYSTEM    = UTC
MEAN_ELEMENT_THEORY = SGP/SGP4

EPOCH          = 2025-12-30T12:48:09.117504
MEAN_MOTION    = 15.39599147
ECCENTRICITY   = .00022178
INCLINATION    = 53.1614
RA_OF_ASC_NODE = 102.9270
ARG_OF_PERICENTER = 38.3816
MEAN_ANOMALY   = 321.7347

EPHEMERIS_TYPE = 0
CLASSIFICATION_TYPE = U
NORAD_CAT_ID   = 66640
ELEMENT_SET_NO = 999
REV_AT_EPOCH   = 695
BSTAR          = .15852152E-2
MEAN_MOTION_DOT = .63496E-3
MEAN_MOTION_DDOT = 0

CCSDS_OMM_VERS = 2.0
CREATION_DATE  = 
ORIGINATOR     = 

OBJECT_NAME    = STARLINK-35923
OBJECT_ID      = 2025-271AA
CENTER_NAME    = EARTH
REF_FRAME      = TEME
TIME_SYSTEM    = UTC
MEAN_ELEMENT_THEORY = SGP/SGP4

EPOCH          = 2025-12-30T13:35:17.715264
MEAN_MOTION    = 15.39595295
ECCENTRICITY   = .00012272
INCLINATION    = 53.1603
RA_OF_ASC_NODE = 102.4183
ARG_OF_PERICENTER = 63.2604
MEAN_ANOMALY   = 296.8527

EPHEMERIS_TYPE = 0
CLASSIFICATION_TYPE = U
NORAD_CAT_ID   = 66641
ELEMENT_SET_NO = 999
REV_AT_EPOCH   = 696
BSTAR          = .25065194E-2
MEAN_MOTION_DOT = .101116E-2
MEAN_MOTION_DDOT = 0

CCSDS_OMM_VERS = 2.0
CREATION_DATE  = 
ORIGINATOR     = 

OBJECT_NAME    = STARLINK-35926
OBJECT_ID      = 2025-271AB
CENTER_NAME    = EARTH
REF_FRAME      = TEME
TIME_SYSTEM    = UTC
MEAN_ELEMENT_THEORY = SGP/SGP4

EPOCH          = 2025-12-29T18:59:46.128768
MEAN_MOTION    = 15.39660207
ECCENTRICITY   = .00012866
INCLINATION    = 53.1590
RA_OF_ASC_NODE = 106.1149
ARG_OF_PERICENTER = 78.4546
MEAN_ANOMALY   = 281.6604

EPHEMERIS_TYPE = 0
CLASSIFICATION_TYPE = U
NORAD_CAT_ID   = 66642
ELEMENT_SET_NO = 999
REV_AT_EPOCH   = 680
BSTAR          = .22504808E-2
MEAN_MOTION_DOT = .90817E-3
MEAN_MOTION_DDOT = 0

CCSDS_OMM_VERS = 2.0
CREATION_DATE  = 
ORIGINATOR     = 

OBJECT_NAME    = STARLINK-35918
OBJECT_ID      = 2025-271AC
CENTER_NAME    = EARTH
REF_FRAME      = TEME
TIME_SYSTEM    = UTC
MEAN_ELEMENT_THEORY = SGP/SGP4

EPOCH          = 2025-12-30T12:28:07.326336
MEAN_MOTION    = 15.39595858
ECCENTRICITY   = .00015848
INCLINATION    = 53.1616
RA_OF_ASC_NODE = 102.8400
ARG_OF_PERICENTER = 111.7990
MEAN_ANOMALY   = 248.3184

EPHEMERIS_TYPE = 0
CLASSIFICATION_TYPE = U
NORAD_CAT_ID   = 66643
ELEMENT_SET_NO = 999
REV_AT_EPOCH   = 695
BSTAR          = .14971365E-2
MEAN_MOTION_DOT = .59909E-3
MEAN_MOTION_DDOT = 0

CCSDS_OMM_VERS = 2.0
CREATION_DATE  = 
ORIGINATOR     = 

OBJECT_NAME    = STARLINK-35938
OBJECT_ID      = 2025-271AD
CENTER_NAME    = EARTH
REF_FRAME      = TEME
TIME_SYSTEM    = UTC
MEAN_ELEMENT_THEORY = SGP/SGP4

EPOCH          = 2025-12-30T07:27:35.329248
MEAN_MOTION    = 15.40129659
ECCENTRICITY   = .00009187
INCLINATION    = 53.1592
RA_OF_ASC_NODE = 103.6696
ARG_OF_PERICENTER = 211.3414
MEAN_ANOMALY   = 148.7537

EPHEMERIS_TYPE = 0
CLASSIFICATION_TYPE = U
NORAD_CAT_ID   = 66644
ELEMENT_SET_NO = 999
REV_AT_EPOCH   = 692
BSTAR          = .31212919E-2
MEAN_MOTION_DOT = .128724E-2
MEAN_MOTION_DDOT = 0

CCSDS_OMM_VERS = 2.0
CREATION_DATE  = 
ORIGINATOR     = 

OBJECT_NAME    = SHENZHOU-22
OBJECT_ID      = 2025-272A
CENTER_NAME    = EARTH
REF_FRAME      = TEME
TIME_SYSTEM    = UTC
MEAN_ELEMENT_THEORY = SGP/SGP4

EPOCH          = 2025-12-30T03:11:40.380000
MEAN_MOTION    = 15.59892918
ECCENTRICITY   = .0009498
INCLINATION    = 41.4672
RA_OF_ASC_NODE = 271.0575
ARG_OF_PERICENTER = 180.1911
MEAN_ANOMALY   = 179.8925

EPHEMERIS_TYPE = 0
CLASSIFICATION_TYPE = U
NORAD_CAT_ID   = 66645
ELEMENT_SET_NO = 999
REV_AT_EPOCH   = 26598
BSTAR          = .31260929E-3
MEAN_MOTION_DOT = .25691E-3
MEAN_MOTION_DDOT = 0

CCSDS_OMM_VERS = 2.0
CREATION_DATE  = 
ORIGINATOR     = 

OBJECT_NAME    = COSMOS 2597 (RODNIK-S 22)
OBJECT_ID      = 2025-273A
CENTER_NAME    = EARTH
REF_FRAME      = TEME
TIME_SYSTEM    = UTC
MEAN_ELEMENT_THEORY = SGP/SGP4

EPOCH          = 2025-12-30T14:19:14.693376
MEAN_MOTION    = 12.42797147
ECCENTRICITY   = .00108008
INCLINATION    = 82.4996
RA_OF_ASC_NODE = 275.3583
ARG_OF_PERICENTER = 222.9767
MEAN_ANOMALY   = 137.0470

EPHEMERIS_TYPE = 0
CLASSIFICATION_TYPE = U
NORAD_CAT_ID   = 66647
ELEMENT_SET_NO = 999
REV_AT_EPOCH   = 435
BSTAR          = .39029935E-4
MEAN_MOTION_DOT = .15E-6
MEAN_MOTION_DDOT = 0

CCSDS_OMM_VERS = 2.0
CREATION_DATE  = 
ORIGINATOR     = 

OBJECT_NAME    = COSMOS 2598 (RODNIK-S 23)
OBJECT_ID      = 2025-273B
CENTER_NAME    = EARTH
REF_FRAME      = TEME
TIME_SYSTEM    = UTC
MEAN_ELEMENT_THEORY = SGP/SGP4

EPOCH          = 2025-12-30T13:44:49.667712
MEAN_MOTION    = 12.43233692
ECCENTRICITY   = .00083635
INCLINATION    = 82.5030
RA_OF_ASC_NODE = 275.3562
ARG_OF_PERICENTER = 194.5629
MEAN_ANOMALY   = 165.5211

EPHEMERIS_TYPE = 0
CLASSIFICATION_TYPE = U
NORAD_CAT_ID   = 66648
ELEMENT_SET_NO = 999
REV_AT_EPOCH   = 435
BSTAR          = -.11871356E-3
MEAN_MOTION_DOT = -.7E-7
MEAN_MOTION_DDOT = 0

CCSDS_OMM_VERS = 2.0
CREATION_DATE  = 
ORIGINATOR     = 

OBJECT_NAME    = COSMOS 2599 (RODNIK-S 24)
OBJECT_ID      = 2025-273C
CENTER_NAME    = EARTH
REF_FRAME      = TEME
TIME_SYSTEM    = UTC
MEAN_ELEMENT_THEORY = SGP/SGP4

EPOCH          = 2025-12-30T14:45:23.332896
MEAN_MOTION    = 12.41152614
ECCENTRICITY   = .00063854
INCLINATION    = 82.5048
RA_OF_ASC_NODE = 275.3931
ARG_OF_PERICENTER = 231.2259
MEAN_ANOMALY   = 128.8250

EPHEMERIS_TYPE = 0
CLASSIFICATION_TYPE = U
NORAD_CAT_ID   = 66649
ELEMENT_SET_NO = 999
REV_AT_EPOCH   = 435
BSTAR          = .15818013E-3
MEAN_MOTION_DOT = .31E-6
MEAN_MOTION_DDOT = 0

CCSDS_OMM_VERS = 2.0
CREATION_DATE  = 
ORIGINATOR     = 

OBJECT_NAME    = BEE-1000
OBJECT_ID      = 2025-274A
CENTER_NAME    = EARTH
REF_FRAME      = TEME
TIME_SYSTEM    = UTC
MEAN_ELEMENT_THEORY = SGP/SGP4

EPOCH          = 2025-12-30T14:17:37.458816
MEAN_MOTION    = 14.91728912
ECCENTRICITY   = .00115767
INCLINATION    = 97.7406
RA_OF_ASC_NODE = 291.4573
ARG_OF_PERICENTER = 186.8166
MEAN_ANOMALY   = 173.2898

EPHEMERIS_TYPE = 0
CLASSIFICATION_TYPE = U
NORAD_CAT_ID   = 66650
ELEMENT_SET_NO = 999
REV_AT_EPOCH   = 506
BSTAR          = .27844999E-3
MEAN_MOTION_DOT = .2751E-4
MEAN_MOTION_DDOT = 0

