STARLINK-35972          
1 66638U 25271X   25364.52879301  .00072897  00000+0  18158-2 0  9998
2 66638  53.1609 102.8979 0001479  72.7715 287.3452 15.39607606  6955
STARLINK-35908          
1 66639U 25271Y   25364.58906417  .00081309  00000+0  20224-2 0  9999
2 66639  53.1603 102.5620 0001383 110.0641 250.0513 15.39600505  6965
STARLINK-35921          
1 66640U 25271Z   25364.53343886  .00063496  00000+0  15852-2 0  9999
2 66640  53.1614 102.9270 0002217  38.3816 321.7347 15.39599147  6956
STARLINK-35923          
1 66641U 25271AA  25364.56617726  .00101116  00000+0  25065-2 0  9999
2 66641  53.1603 102.4183 0001227  63.2604 296.8527 15.39595295  6968
STARLINK-35926          
1 66642U 25271AB  25363.79150612  .00090817  00000+0  22505-2 0  9991
2 66642  53.1590 106.1149 0001286  78.4546 281.6604 15.39660207  6802
STARLINK-35918          
1 66643U 25271AC  25364.51952924  .00059909  00000+0  14971-2 0  9994
2 66643  53.1616 102.8400 0001584 111.7990 248.3184 15.39595858  6958
STARLINK-35938          
1 66644U 25271AD  25364.31082557  .00128724  00000+0  31213-2 0  9999
2 66644  53.1592 103.6696 0000918 211.3414 148.7537 15.40129659  6922
SHENZHOU-22             
1 66645U 25272A   25364.13310625  .00025691  00000+0  31261-3 0  9994
2 66645  41.4672 271.0575 0009498 180.1911 179.8925 15.59892918265989
COSMOS 2597 (RODNIK-S *)
1 66647U 25273A   25364.59669784  .00000015  00000+0  39030-4 0  9996
2 66647  82.4996 275.3583 0010800 222.9767 137.0470 12.42797147  4354
COSMOS 2598 (RODNIK-S *)
1 66648U 25273B   25364.57279708 -.00000007  00000+0 -11871-3 0  9993
2 66648  82.5030 275.3562 0008363 194.5629 165.5211 12.43233692  4354
COSMOS 2599 (RODNIK-S *)
1 66649U 25273C   25364.61485339  .00000031  00000+0  15818-3 0  9998
2 66649  82.5048 275.3931 0006385 231.2259 128.8250 12.41152614  4351
BEE-1000                
1 66650U 25274A   25364.59557244  .00002751  00000+0  27845-3 0  9997
2 66650  97.7406 291.4573 0011576 186.8166 173.2898 14.91728912  5068
